ORBCOMM FM103 [+]       
1 40091U 14040F   23342.47587348  .00000680  00000+0  19030-3 0  9992
2 40091  47.0049 122.4978 0002648 247.8474 112.2130 14.56120341482910
ORBCOMM FM114 [+]       
1 41179U 15081A   23343.12830542  .00000751  00000+0  20623-3 0  9995
2 41179  47.0041  28.7638 0002541 294.1025  65.9594 14.56142116423423
ORBCOMM FM119 [-]       
1 41180U 15081B   23342.89032054  .00000614  00000+0  17548-3 0  9992
2 41180  47.0021 299.0767 0001579 353.6415   6.4449 14.56118487424595
ORBCOMM FM105 [-]       
1 41181U 15081C   23342.89466920  .00000237  00000+0  11415-3 0  9994
2 41181  47.0017 252.0554 0002225 335.2757  24.8016 14.44138339420313
ORBCOMM FM110 [+]       
1 41182U 15081D   23342.14469564  .00000853  00000+0  22884-3 0  9996
2 41182  47.0021  32.8154 0001326 180.8923 179.1960 14.56144970423102
ORBCOMM FM118 [+]       
1 41183U 15081E   23342.94532204  .00000878  00000+0  23455-3 0  9999
2 41183  47.0054  29.3210 0001484 177.7225 182.3667 14.56141641423403
ORBCOMM FM112 [+]       
1 41184U 15081F   23341.97636468  .00000907  00000+0  24128-3 0  9990
2 41184  47.0003 302.6279 0001946 336.1274  23.9520 14.56124337424400
ORBCOMM FM113 [+]       
1 41185U 15081G   23342.29598779  .00000764  00000+0  20926-3 0  9992
2 41185  47.0022 301.3573 0001271 353.3514   6.7353 14.56087198424433
